[{"OBJECT_NAME":"CSTP 1.2 (STC 1.2)","OBJECT_ID":"2023-091W","EPOCH":"2026-03-09T23:12:27.821952","MEAN_MOTION":15.2718076,"ECCENTRICITY":0.00204388,"INCLINATION":97.5258,"RA_OF_ASC_NODE":134.3262,"ARG_OF_PERICENTER":84.9592,"MEAN_ANOMALY":275.3979,"EPHEMERIS_TYPE":0,"CLASSIFICATION_TYPE":"U","NORAD_CAT_ID":57186,"ELEMENT_SET_NO":999,"REV_AT_EPOCH":14930,"BSTAR":0.00043035718,"MEAN_MOTION_DOT":0.00011466,"MEAN_MOTION_DDOT":0},{"OBJECT_NAME":"STARLINK-32763","OBJECT_ID":"2025-014R","EPOCH":"2026-03-08T14:24:46.406304","MEAN_MOTION":15.27621488,"ECCENTRICITY":0.00013991,"INCLINATION":42.9992,"RA_OF_ASC_NODE":160.2923,"ARG_OF_PERICENTER":268.2367,"MEAN_ANOMALY":91.8325,"EPHEMERIS_TYPE":0,"CLASSIFICATION_TYPE":"U","NORAD_CAT_ID":62750,"ELEMENT_SET_NO":999,"REV_AT_EPOCH":6309,"BSTAR":0.0013710272,"MEAN_MOTION_DOT":0.00037707,"MEAN_MOTION_DDOT":0}]
